FLOCK 4G-28             
1 62634U 25009AB  26202.47334365  .00007063  00000+0  20809-3 0  9991
2 62634  97.4016 287.1630 0002630 149.1089 211.0310 15.35348637 84342
GARAI-A                 
1 62635U 25009AC  26202.55582455  .00008186  00000+0  39749-3 0  9996
2 62635  97.3953 281.5972 0002647 170.5392 189.5893 15.18713482 83992
FLOCK 4G-24             
1 62637U 25009AE  26202.21224246  .00007859  00000+0  26950-3 0  9998
2 62637  97.4013 284.3759 0004155 150.2027 209.9451 15.30441000 84134
FLOCK 4G-3              
1 62639U 25009AG  26202.53438578  .00008629  00000+0  30011-3 0  9999
2 62639  97.4015 284.4002 0003789 153.4312 206.7123 15.29952257 84156
NUSAT-45 (UZMASAT-1)    
1 62640U 25009AH  26202.19565024  .00006418  00000+0  22449-3 0  9990
2 62640  97.3581 283.0864 0002278 161.6428 198.4895 15.29873248 84129
FLOCK 4G-27             
1 62641U 25009AJ  26202.48883529  .00008315  00000+0  28991-3 0  9992
2 62641  97.3921 283.6948 0003106 154.6976 205.4417 15.29882473 84149
FLOCK 4G-29             
1 62642U 25009AK  26202.21236457  .00005536  00000+0  19374-3 0  9993
2 62642  97.4008 284.0390 0003905 150.9022 209.2437 15.29918453 84109
ANSER LEADER-S          
1 62644U 25009AM  26202.61079373  .00053530  00000+0  92228-3 0  9997
2 62644  97.3992 290.1195 0004345 176.6878 183.4403 15.50885652 84537
FLOCK 4G-22             
1 62645U 25009AN  26202.49278210  .00009892  00000+0  34467-3 0  9998
2 62645  97.3995 284.3504 0003454 147.2003 212.9453 15.29852580 84166
FLOCK 4G-25             
1 62646U 25009AP  26202.46555160  .00007816  00000+0  27102-3 0  9990
2 62646  97.4002 284.4049 0002944 149.0836 211.0578 15.30084521 84161
FLOCK 4G-23             
1 62647U 25009AQ  26202.48655846  .00043432  00000+0  12714-2 0  9991
2 62647  97.3913 284.1909 0003552 159.0153 201.1236 15.35103312 84181
LIME                    
1 62648U 25009AR  26202.20618433  .00007799  00000+0  25889-3 0  9997
2 62648  97.3939 284.3902 0001717 166.0707 194.0582 15.31502334 84175
AE1C                    
1 62649U 25009AS  26202.47568138  .00036282  00000+0  70562-3 0  9990
2 62649  97.4017 290.8060 0003168 164.7864 195.3482 15.47508360 84582
FLOCK 4G-34             
1 62650U 25009AT  26202.47091604  .00007588  00000+0  26507-3 0  9998
2 62650  97.3952 283.8904 0002854 148.8841 211.2569 15.29850950 84151
FLOCK 4G-21             
1 62651U 25009AU  26202.18118918  .00030759  00000+0  96036-3 0  9995
2 62651  97.3976 284.6367 0003619 174.7001 185.4280 15.33136017 84165
FLOCK 4G-31             
1 62652U 25009AV  26202.17453168  .00007991  00000+0  28069-3 0  9997
2 62652  97.3958 283.5660 0002417 147.9955 212.1432 15.29654046 84108
PAUSAT-1                
1 62653U 25009AW  26202.52474232  .00003143  00000+0  13350-3 0  9994
2 62653  97.3942 281.6869 0001996 145.8673 214.2693 15.23793482 84011
BRO-16                  
1 62654U 25009AX  26202.22019509  .00002442  00000+0  10328-3 0  9997
2 62654  97.4048 282.2879 0002573 141.5734 218.5687 15.24155586 83984
TRANSPORTER-12 OBJECT AY
1 62655U 25009AY  26202.22007158  .00020731  00000+0  47272-3 0  9994
2 62655  97.4022 289.1607 0003021 137.9951 222.1529 15.42934784 84444
TRANSPORTER-12 OBJECT AZ
1 62656U 25009AZ  26202.20284555  .00009681  00000+0  29896-3 0  9994
2 62656  97.3930 285.3044 0001846 151.5376 208.5968 15.33753033 84239
TRANSPORTER-12 OBJECT BA
1 62657U 25009BA  26202.19154260  .00006387  00000+0  22609-3 0  9997
2 62657  97.3937 283.7061 0003009 132.3063 227.8433 15.29483746 84126
TROLL                   
1 62658U 25009BB  26202.21017679  .00006949  00000+0  23688-3 0  9995
2 62658  97.3880 283.8973 0000989 154.4758 205.6532 15.30683705138658
FLOCK 4G-4              
1 62659U 25009BC  26202.20195088  .00029152  00000+0  93121-3 0  9996
2 62659  97.3927 283.4272 0005179 173.5615 186.5694 15.32410678141715
FLOCK 4G-6              
1 62660U 25009BD  26202.16216971  .00007018  00000+0  24392-3 0  9999
2 62660  97.3929 283.4071 0003529 180.8966 179.2269 15.30042459141693
FLOCK 4G-2              
1 62661U 25009BE  26202.48130591  .00009407  00000+0  32232-3 0  9994
2 62661  97.3996 284.3756 0004371 180.0952 180.0289 15.30410238141776
FLOCK 4G-5              
1 62663U 25009BG  26202.21242519  .00007123  00000+0  24056-3 0  9999
2 62663  97.4016 284.5143 0004005 163.6517 196.4854 15.30973730 84149
LYRA-1                  
1 62664U 25009BH  26202.45263520  .00008063  00000+0  38348-3 0  9994
2 62664  97.3960 276.3283 0010219  79.6795 280.5591 15.19397244 83621
JAY-D2                  
1 62665U 25009BJ  26202.55754419  .00002951  00000+0  13018-3 0  9995
2 62665  97.3875 280.4679 0003839 187.1030 173.0153 15.22549243 83968
FLOCK 4G-1              
1 62666U 25009BK  26202.20520727  .00008474  00000+0  29190-3 0  9995
2 62666  97.4009 284.0793 0004612 178.2221 181.9037 15.30266478 84111
FLOCK 4G-14             
1 62667U 25009BL  26202.17268036  .00007933  00000+0  27730-3 0  9991
2 62667  97.4013 283.8397 0004800 173.8662 186.2638 15.29810826 84095
